COSMOS 1408 DEB         
1 50032U 82092RU  26095.28221256  .00006363  00000+0  12437-3 0  9998
2 50032  82.5605 302.0127 0016009 155.1903 205.0120 15.47069726243582
COSMOS 1408 DEB         
1 50058U 82092SW  26094.02587809  .00073697  00000+0  51582-3 0  9994
2 50058  82.6072 311.0170 0012836  41.4570 318.7665 15.73872992245649
COSMOS 1408 DEB         
1 50404U 82092ADS 26094.46059943  .00282931  00000+0  50300-2 0  9999
2 50404  82.1892  97.2690 0105643 163.2845 197.1930 15.43249607229134
COSMOS 1408 DEB         
1 50621U 82092ALR 26094.87374596  .00040092  00000+0  41068-3 0  9991
2 50621  82.5662 315.7467 0024744  91.5085 268.9009 15.64393909240141
