[{"OBJECT_NAME":"COSMOS 1408 DEB","OBJECT_ID":"1982-092RU","EPOCH":"2026-04-05T06:46:23.165184","MEAN_MOTION":15.47069726,"ECCENTRICITY":0.00160098,"INCLINATION":82.5605,"RA_OF_ASC_NODE":302.0127,"ARG_OF_PERICENTER":155.1903,"MEAN_ANOMALY":205.012,"EPHEMERIS_TYPE":0,"CLASSIFICATION_TYPE":"U","NORAD_CAT_ID":50032,"ELEMENT_SET_NO":999,"REV_AT_EPOCH":24358,"BSTAR":0.0001243695,"MEAN_MOTION_DOT":6.363e-5,"MEAN_MOTION_DDOT":0},{"OBJECT_NAME":"COSMOS 1408 DEB","OBJECT_ID":"1982-092SW","EPOCH":"2026-04-04T00:37:15.866976","MEAN_MOTION":15.73872992,"ECCENTRICITY":0.0012836,"INCLINATION":82.6072,"RA_OF_ASC_NODE":311.017,"ARG_OF_PERICENTER":41.457,"MEAN_ANOMALY":318.7665,"EPHEMERIS_TYPE":0,"CLASSIFICATION_TYPE":"U","NORAD_CAT_ID":50058,"ELEMENT_SET_NO":999,"REV_AT_EPOCH":24564,"BSTAR":0.00051581644,"MEAN_MOTION_DOT":0.00073697,"MEAN_MOTION_DDOT":0},{"OBJECT_NAME":"COSMOS 1408 DEB","OBJECT_ID":"1982-092ADS","EPOCH":"2026-04-04T11:03:15.790752","MEAN_MOTION":15.43249607,"ECCENTRICITY":0.01056434,"INCLINATION":82.1892,"RA_OF_ASC_NODE":97.269,"ARG_OF_PERICENTER":163.2845,"MEAN_ANOMALY":197.193,"EPHEMERIS_TYPE":0,"CLASSIFICATION_TYPE":"U","NORAD_CAT_ID":50404,"ELEMENT_SET_NO":999,"REV_AT_EPOCH":22913,"BSTAR":0.0050300291,"MEAN_MOTION_DOT":0.00282931,"MEAN_MOTION_DDOT":0},{"OBJECT_NAME":"COSMOS 1408 DEB","OBJECT_ID":"1982-092ALR","EPOCH":"2026-04-04T20:58:11.650944","MEAN_MOTION":15.64393909,"ECCENTRICITY":0.00247448,"INCLINATION":82.5662,"RA_OF_ASC_NODE":315.7467,"ARG_OF_PERICENTER":91.5085,"MEAN_ANOMALY":268.9009,"EPHEMERIS_TYPE":0,"CLASSIFICATION_TYPE":"U","NORAD_CAT_ID":50621,"ELEMENT_SET_NO":999,"REV_AT_EPOCH":24014,"BSTAR":0.00041068081,"MEAN_MOTION_DOT":0.00040092,"MEAN_MOTION_DDOT":0}]
